start=new Date('2022-12-18T00:00:00.000Z').valueOf();
sats=[{"EPOCH":"2022-12-17T18:36:05.271264","PERIOD":"95.920","REF_FRAME":"TEME","OBJECT_TYPE":"PAYLOAD","OBJECT_ID":"2022-077AN","INCLINATION":"97.6547","DECAY_DATE":null,"REV_AT_EPOCH":"2419","CLASSIFICATION_TYPE":"U","CENTER_NAME":"EARTH","SITE":"AFWTR","OBJECT_NAME":"STARLINK-4327","MEAN_MOTION_DOT":"-0.00000384","TLE_LINE1":"1 53079U 22077AN  22351.77506101 -.00000384  00000-0 -25266-4 0  9994","RCS_SIZE":"LARGE","EPHEMERIS_TYPE":"0","FILE":"3707070","SEMIMAJOR_AXIS":"6941.165","BSTAR":"-0.00002526600000","LAUNCH_DATE":"2022-07-11","APOAPSIS":"565.279","MEAN_MOTION_DDOT":"0.0000000000000","NORAD_CAT_ID":"53079","MEAN_ELEMENT_THEORY":"SGP4","TLE_LINE2":"2 53079  97.6547 170.4703 0003241  13.6549 346.4763 15.01254254 24192","MEAN_MOTION":"15.01254254","ARG_OF_PERICENTER":"13.6549","MEAN_ANOMALY":"346.4763","ELEMENT_SET_NO":"999","COUNTRY_CODE":"US","GP_ID":"220759854","ECCENTRICITY":"0.00032410","PERIAPSIS":"560.780","RA_OF_ASC_NODE":"170.4703","TIME_SYSTEM":"UTC"},{"MEAN_MOTION_DOT":"-0.00000915","TLE_LINE1":"1 53080U 22077AP  22351.77876822 -.00000915  00000-0 -66634-4 0  9990","RCS_SIZE":"LARGE","OBJECT_NAME":"STARLINK-4330","EPHEMERIS_TYPE":"0","FILE":"3707070","APOAPSIS":"565.417","SEMIMAJOR_AXIS":"6941.181","LAUNCH_DATE":"2022-07-11","BSTAR":"-0.00006663400000","MEAN_ELEMENT_THEORY":"SGP4","MEAN_MOTION_DDOT":"0.0000000000000","NORAD_CAT_ID":"53080","PERIOD":"95.920","OBJECT_TYPE":"PAYLOAD","REF_FRAME":"TEME","EPOCH":"2022-12-17T18:41:25.574208","INCLINATION":"97.6558","OBJECT_ID":"2022-077AP","SITE":"AFWTR","DECAY_DATE":null,"REV_AT_EPOCH":"2419","CLASSIFICATION_TYPE":"U","CENTER_NAME":"EARTH","ECCENTRICITY":"0.00034160","RA_OF_ASC_NODE":"170.4696","PERIAPSIS":"560.674","TIME_SYSTEM":"UTC","MEAN_MOTION":"15.01249076","TLE_LINE2":"2 53080  97.6558 170.4696 0003416  20.3763 339.7597 15.01249076 24190","ARG_OF_PERICENTER":"20.3763","MEAN_ANOMALY":"339.7597","ELEMENT_SET_NO":"999","GP_ID":"220760068","COUNTRY_CODE":"US"},{"PERIAPSIS":"560.902","RA_OF_ASC_NODE":"170.4623","TIME_SYSTEM":"UTC","ECCENTRICITY":"0.00030030","ELEMENT_SET_NO":"999","COUNTRY_CODE":"US","GP_ID":"220759001","ARG_OF_PERICENTER":"12.4319","MEAN_MOTION":"15.01268389","TLE_LINE2":"2 53081  97.6538 170.4623 0003003  12.4319 347.6979 15.01268389 24190","MEAN_ANOMALY":"347.6979","BSTAR":"0.00006498800000","LAUNCH_DATE":"2022-07-11","SEMIMAJOR_AXIS":"6941.121","APOAPSIS":"565.070","NORAD_CAT_ID":"53081","MEAN_MOTION_DDOT":"0.0000000000000","MEAN_ELEMENT_THEORY":"SGP4","OBJECT_NAME":"STARLINK-4326","RCS_SIZE":"LARGE","MEAN_MOTION_DOT":"0.00000776","TLE_LINE1":"1 53081U 22077AQ  22351.77159897  .00000776  00000-0  64988-4 0  9990","FILE":"3707070","EPHEMERIS_TYPE":"0","OBJECT_ID":"2022-077AQ","INCLINATION":"97.6538","DECAY_DATE":null,"REV_AT_EPOCH":"2419","CLASSIFICATION_TYPE":"U","CENTER_NAME":"EARTH","SITE":"AFWTR","EPOCH":"2022-12-17T18:31:06.151008","OBJECT_TYPE":"PAYLOAD","REF_FRAME":"TEME","PERIOD":"95.919"},{"MEAN_ELEMENT_THEORY":"SGP4","NORAD_CAT_ID":"53082","MEAN_MOTION_DDOT":"0.0000000000000","APOAPSIS":"565.418","BSTAR":"-0.00002244800000","LAUNCH_DATE":"2022-07-11","SEMIMAJOR_AXIS":"6941.122","FILE":"3707070","EPHEMERIS_TYPE":"0","RCS_SIZE":"LARGE","TLE_LINE1":"1 53082U 22077AR  22351.77320585 -.00000348  00000-0 -22448-4 0  9997","MEAN_MOTION_DOT":"-0.00000348","OBJECT_NAME":"STARLINK-4321","SITE":"AFWTR","DECAY_DATE":null,"CLASSIFICATION_TYPE":"U","REV_AT_EPOCH":"2419","CENTER_NAME":"EARTH","INCLINATION":"97.6532","OBJECT_ID":"2022-077AR","OBJECT_TYPE":"PAYLOAD","REF_FRAME":"TEME","PERIOD":"95.919","EPOCH":"2022-12-17T18:33:24.985440","TIME_SYSTEM":"UTC","RA_OF_ASC_NODE":"170.4652","PERIAPSIS":"560.557","ECCENTRICITY":"0.00035010","GP_ID":"220759215","COUNTRY_CODE":"US","ELEMENT_SET_NO":"999","MEAN_ANOMALY":"350.1639","ARG_OF_PERICENTER":"9.9654","MEAN_MOTION":"15.01267906","TLE_LINE2":"2 53082  97.6532 170.4652 0003501   9.9654 350.1639 15.01267906 24199"},{"DECAY_DATE":null,"CLASSIFICATION_TYPE":"U","REV_AT_EPOCH":"2419","CENTER_NAME":"EARTH","SITE":"AFWTR","OBJECT_ID":"2022-077AS","INCLINATION":"97.6504","EPOCH":"2022-12-17T18:14:44.474208","PERIOD":"95.919","OBJECT_TYPE":"PAYLOAD","REF_FRAME":"TEME","MEAN_MOTION_DDOT":"0.0000000000000","NORAD_CAT_ID":"53083","MEAN_ELEMENT_THEORY":"SGP4","SEMIMAJOR_AXIS":"6941.140","LAUNCH_DATE":"2022-07-11","BSTAR":"0.00004053000000","APOAPSIS":"564.558","EPHEMERIS_TYPE":"0","FILE":"3707070","OBJECT_NAME":"STARLINK-4251","MEAN_MOTION_DOT":"0.00000462","TLE_LINE1":"1 53083U 22077AS  22351.76023697  .00000462  00000-0  40530-4 0  9998","RCS_SIZE":"LARGE","COUNTRY_CODE":"US","GP_ID":"220760281","ELEMENT_SET_NO":"999","MEAN_ANOMALY":"343.7308","MEAN_MOTION":"15.01262343","TLE_LINE2":"2 53083  97.6504 170.4375 0002238  16.3988 343.7308 15.01262343 24190","ARG_OF_PERICENTER":"16.3988","TIME_SYSTEM":"UTC","PERIAPSIS":"561.451","RA_OF_ASC_NODE":"170.4375","ECCENTRICITY":"0.00022380"},{"EPHEMERIS_TYPE":"0","FILE":"3707070","MEAN_MOTION_DOT":"0.00001200","TLE_LINE1":"1 53084U 22077AT  22351.77134575  .00001200  00000-0  97958-4 0  9995","RCS_SIZE":"LARGE","OBJECT_NAME":"STARLINK-4319","MEAN_ELEMENT_THEORY":"SGP4","MEAN_MOTION_DDOT":"0.0000000000000","NORAD_CAT_ID":"53084","APOAPSIS":"565.007","SEMIMAJOR_AXIS":"6941.135","LAUNCH_DATE":"2022-07-11","BSTAR":"0.00009795800000","PERIOD":"95.919","REF_FRAME":"TEME","OBJECT_TYPE":"PAYLOAD","EPOCH":"2022-12-17T18:30:44.272800","SITE":"AFWTR","DECAY_DATE":null,"CENTER_NAME":"EARTH","REV_AT_EPOCH":"2419","CLASSIFICATION_TYPE":"U","INCLINATION":"97.6540","OBJECT_ID":"2022-077AT","ECCENTRICITY":"0.00028910","TIME_SYSTEM":"UTC","RA_OF_ASC_NODE":"170.4628","PERIAPSIS":"560.993","MEAN_ANOMALY":"346.9613","TLE_LINE2":"2 53084  97.6540 170.4628 0002891  13.1687 346.9613 15.01263872 24190","MEAN_MOTION":"15.01263872","ARG_OF_PERICENTER":"13.1687","GP_ID":"220760494","COUNTRY_CODE":"US","ELEMENT_SET_NO":"999"},{"MEAN_ANOMALY":"341.0666","TLE_LINE2":"2 53085  97.6535 170.4603 0003332  19.0682 341.0666 15.01262886 24197","MEAN_MOTION":"15.01262886","ARG_OF_PERICENTER":"19.0682","GP_ID":"220759428","COUNTRY_CODE":"US","ELEMENT_SET_NO":"999","ECCENTRICITY":"0.00033320","TIME_SYSTEM":"UTC","RA_OF_ASC_NODE":"170.4603","PERIAPSIS":"560.690","PERIOD":"95.919","REF_FRAME":"TEME","OBJECT_TYPE":"PAYLOAD","EPOCH":"2022-12-17T18:25:24.283488","SITE":"AFWTR","DECAY_DATE":null,"REV_AT_EPOCH":"2419","CENTER_NAME":"EARTH","CLASSIFICATION_TYPE":"U","INCLINATION":"97.6535","OBJECT_ID":"2022-077AU","EPHEMERIS_TYPE":"0","FILE":"3707070","MEAN_MOTION_DOT":"0.00000865","TLE_LINE1":"1 53085U 22077AU  22351.76764217  .00000865  00000-0  71917-4 0  9990","RCS_SIZE":"LARGE","OBJECT_NAME":"STARLINK-4324","MEAN_ELEMENT_THEORY":"SGP4","MEAN_MOTION_DDOT":"0.0000000000000","NORAD_CAT_ID":"53085","APOAPSIS":"565.316","SEMIMAJOR_AXIS":"6941.138","LAUNCH_DATE":"2022-07-11","BSTAR":"0.00007191700000"},{"PERIAPSIS":"560.944","RA_OF_ASC_NODE":"170.4581","TIME_SYSTEM":"UTC","ECCENTRICITY":"0.00029480","ELEMENT_SET_NO":"999","COUNTRY_CODE":"US","GP_ID":"220759641","TLE_LINE2":"2 53086  97.6526 170.4581 0002948  17.3799 342.7525 15.01267027 24199","MEAN_MOTION":"15.01267027","ARG_OF_PERICENTER":"17.3799","MEAN_ANOMALY":"342.7525","SEMIMAJOR_AXIS":"6941.125","BSTAR":"0.00025378000000","LAUNCH_DATE":"2022-07-11","APOAPSIS":"565.036","MEAN_MOTION_DDOT":"0.0000000000000","NORAD_CAT_ID":"53086","MEAN_ELEMENT_THEORY":"SGP4","OBJECT_NAME":"STARLINK-4318","TLE_LINE1":"1 53086U 22077AV  22351.76949871  .00003203  00000-0  25378-3 0  9990","MEAN_MOTION_DOT":"0.00003203","RCS_SIZE":"LARGE","EPHEMERIS_TYPE":"0","FILE":"3707070","OBJECT_ID":"2022-077AV","INCLINATION":"97.6526","CENTER_NAME":"EARTH","DECAY_DATE":null,"REV_AT_EPOCH":"2419","CLASSIFICATION_TYPE":"U","SITE":"AFWTR","EPOCH":"2022-12-17T18:28:04.688544","PERIOD":"95.919","REF_FRAME":"TEME","OBJECT_TYPE":"PAYLOAD"},{"ECCENTRICITY":"0.00024170","TIME_SYSTEM":"UTC","RA_OF_ASC_NODE":"170.4448","PERIAPSIS":"561.344","MEAN_ANOMALY":"349.1209","ARG_OF_PERICENTER":"11.0068","MEAN_MOTION":"15.01256937","TLE_LINE2":"2 53087  97.6505 170.4448 0002417  11.0068 349.1209 15.01256937 24198","GP_ID":"220759855","COUNTRY_CODE":"US","ELEMENT_SET_NO":"999","FILE":"3707070","EPHEMERIS_TYPE":"0","RCS_SIZE":"LARGE","TLE_LINE1":"1 53087U 22077AW  22351.76418744 -.00000107  00000-0 -37149-5 0  9994","MEAN_MOTION_DOT":"-0.00000107","OBJECT_NAME":"STARLINK-4329","MEAN_ELEMENT_THEORY":"SGP4","NORAD_CAT_ID":"53087","MEAN_MOTION_DDOT":"0.0000000000000","APOAPSIS":"564.699","BSTAR":"-0.00000371490000","LAUNCH_DATE":"2022-07-11","SEMIMAJOR_AXIS":"6941.156","REF_FRAME":"TEME","OBJECT_TYPE":"PAYLOAD","PERIOD":"95.920","EPOCH":"2022-12-17T18:20:25.794816","SITE":"AFWTR","DECAY_DATE":null,"CLASSIFICATION_TYPE":"U","REV_AT_EPOCH":"2419","CENTER_NAME":"EARTH","INCLINATION":"97.6505","OBJECT_ID":"2022-077AW"},{"TIME_SYSTEM":"UTC","RA_OF_ASC_NODE":"170.4574","PERIAPSIS":"561.034","ECCENTRICITY":"0.00028890","GP_ID":"220760069","COUNTRY_CODE":"US","ELEMENT_SET_NO":"999","MEAN_ANOMALY":"354.7269","ARG_OF_PERICENTER":"5.3986","TLE_LINE2":"2 53088  97.6525 170.4574 0002889   5.3986 354.7269 15.01251140 24198","MEAN_MOTION":"15.01251140","MEAN_ELEMENT_THEORY":"SGP4","NORAD_CAT_ID":"53088","MEAN_MOTION_DDOT":"0.0000000000000","APOAPSIS":"565.044","LAUNCH_DATE":"2022-07-11","BSTAR":"-0.00013892000000","SEMIMAJOR_AXIS":"6941.174","FILE":"3707070","EPHEMERIS_TYPE":"0","RCS_SIZE":"LARGE","TLE_LINE1":"1 53088U 22077AX  22351.76579671 -.00001843  00000-0 -13892-3 0  9997","MEAN_MOTION_DOT":"-0.00001843","OBJECT_NAME":"STARLINK-4333","SITE":"AFWTR","REV_AT_EPOCH":"2419","DECAY_DATE":null,"CLASSIFICATION_TYPE":"U","CENTER_NAME":"EARTH","INCLINATION":"97.6525","OBJECT_ID":"2022-077AX","REF_FRAME":"TEME","OBJECT_TYPE":"PAYLOAD","PERIOD":"95.920","EPOCH":"2022-12-17T18:22:44.835744"}];
